STARLINK-31094          
1 58593U 23200E   26068.62192101  .00000613  00000+0  32520-4 0  9996
2 58593  43.0018 168.9694 0001394 266.7261  93.3431 15.26740016123605
FLOCK 4G-29             
1 62642U 25009AK  26068.81464037  .00011147  00000+0  41831-3 0  9994
2 62642  97.4058 151.3683 0001366 288.0502  72.0588 15.27382318 63721
